GLOBALSTAR M035         
1 25851U 99037A   24193.94258875 -.00000071  00000+0 -28068-3 0  9992
2 25851  51.9955  93.7370 0013178 148.2221 297.2655 11.04531354 58664
GLOBALSTAR M032         
1 25852U 99037B   24194.54464939  .00000017  00000+0  26916-2 0  9997
2 25852  51.9967 301.0294 0009541 314.1742  45.8273 11.19059502 96817
GLOBALSTAR M051         
1 25853U 99037C   24194.15458129 -.00000094  00000+0 -54141-3 0  9998
2 25853  51.9777 141.1726 0001722 335.7430  24.3300 11.42199804 93553
GLOBALSTAR M030         
1 25854U 99037D   24193.82859242 -.00000025  00000+0  10551-2 0  9992
2 25854  51.9903 329.7097 0004257 151.3877 208.7174 11.55097697110719
GLOBALSTAR M048         
1 25872U 99041A   24193.64077713 -.00000063  00000+0  18688-3 0  9994
2 25872  51.9383  64.2800 0013293 318.6379  57.4219 11.33847196 86353
GLOBALSTAR M026         
1 25873U 99041B   24194.22290810 -.00000063  00000+0  58401-4 0  9993
2 25873  51.9967 214.6491 0001192  31.7179  48.3390 11.06833785111048
GLOBALSTAR M043         
1 25874U 99041C   24193.30774289 -.00000071  00000+0 -71290-4 0  9990
2 25874  51.9370 159.1275 0012281  87.4701  63.4856 11.25680236 84484
GLOBALSTAR M028         
1 25875U 99041D   24193.91310932 -.00000070  00000+0  20118-3 0  9999
2 25875  51.9614 127.6838 0063932  52.3982 308.2661 12.50559374147607
